{
  "type": "FeatureCollection",
  "features": [
    {
      "type": "Feature",
      "properties": {
        "norad_id": 38474,
        "name": "IRIDIUM 33 DEB",
        "group": "iridium-33-debris",
        "lat": 59.25707478061938,
        "lon": 16.792184910685485,
        "alt_km": 700.7035916169316,
        "timestamp": "2025-12-11T10:53:16.274795+00:00",
        "meta_object_name": "IRIDIUM 33 DEB",
        "meta_object_id": "1997-051AAB",
        "meta_epoch": "2025-12-10T08:07:41.049120",
        "meta_mean_motion": 14.50673883,
        "meta_eccentricity": 0.00282895,
        "meta_inclination": 86.3478,
        "meta_ra_of_asc_node": 11.1125,
        "meta_arg_of_pericenter": 95.1128,
        "meta_mean_anomaly": 265.3307,
        "meta_ephemeris_type": 0,
        "meta_classification_type": "U",
        "meta_norad_cat_id": 38474,
        "meta_element_set_no": 999,
        "meta_rev_at_epoch": 65283,
        "meta_bstar": 0.00076503501,
        "meta_mean_motion_dot": 3.04e-05,
        "meta_mean_motion_ddot": 0,
        "tle_line1": "1 38474U 97051AAB 25344.33866955  .00003040  00000+0  76504-3 0  9992",
        "tle_line2": "2 38474  86.3478  11.1125 0028289  95.1128 265.3307 14.50673883652835"
      },
      "geometry": {
        "type": "Point",
        "coordinates": [
          16.792184910685485,
          59.25707478061938
        ]
      }
    },
    {
      "type": "Feature",
      "properties": {
        "norad_id": 39777,
        "name": "IRIDIUM 33 DEB",
        "group": "iridium-33-debris",
        "lat": 78.34141093685473,
        "lon": -164.31818941537537,
        "alt_km": 713.2137197450629,
        "timestamp": "2025-12-11T10:53:16.274806+00:00",
        "meta_object_name": "IRIDIUM 33 DEB",
        "meta_object_id": "1997-051AAJ",
        "meta_epoch": "2025-12-10T06:29:21.505056",
        "meta_mean_motion": 14.56331625,
        "meta_eccentricity": 0.0059749,
        "meta_inclination": 85.963,
        "meta_ra_of_asc_node": 176.2409,
        "meta_arg_of_pericenter": 194.9119,
        "meta_mean_anomaly": 165.0329,
        "meta_ephemeris_type": 0,
        "meta_classification_type": "U",
        "meta_norad_cat_id": 39777,
        "meta_element_set_no": 999,
        "meta_rev_at_epoch": 60149,
        "meta_bstar": 0.0040497,
        "meta_mean_motion_dot": 0.00018433,
        "meta_mean_motion_ddot": 0,
        "tle_line1": "1 39777U 97051AAJ 25344.27038779  .00018433  00000+0  40497-2 0  9990",
        "tle_line2": "2 39777  85.9630 176.2409 0059749 194.9119 165.0329 14.56331625601495"
      },
      "geometry": {
        "type": "Point",
        "coordinates": [
          -164.31818941537537,
          78.34141093685473
        ]
      }
    },
    {
      "type": "Feature",
      "properties": {
        "norad_id": 39778,
        "name": "IRIDIUM 33 DEB",
        "group": "iridium-33-debris",
        "lat": -75.03355085254844,
        "lon": 30.07475744733295,
        "alt_km": 722.189795024331,
        "timestamp": "2025-12-11T10:53:16.274816+00:00",
        "meta_object_name": "IRIDIUM 33 DEB",
        "meta_object_id": "1997-051AAK",
        "meta_epoch": "2025-12-09T14:38:46.743072",
        "meta_mean_motion": 14.5422784,
        "meta_eccentricity": 0.000831,
        "meta_inclination": 86.3774,
        "meta_ra_of_asc_node": 44.5837,
        "meta_arg_of_pericenter": 51.0952,
        "meta_mean_anomaly": 309.0995,
        "meta_ephemeris_type": 0,
        "meta_classification_type": "U",
        "meta_norad_cat_id": 39778,
        "meta_element_set_no": 999,
        "meta_rev_at_epoch": 60647,
        "meta_bstar": 0.0013888,
        "meta_mean_motion_dot": 5.904e-05,
        "meta_mean_motion_ddot": 0,
        "tle_line1": "1 39778U 97051AAK 25343.61026323  .00005904  00000+0  13888-2 0  9993",
        "tle_line2": "2 39778  86.3774  44.5837 0008310  51.0952 309.0995 14.54227840606471"
      },
      "geometry": {
        "type": "Point",
        "coordinates": [
          30.07475744733295,
          -75.03355085254844
        ]
      }
    },
    {
      "type": "Feature",
      "properties": {
        "norad_id": 39781,
        "name": "IRIDIUM 33 DEB",
        "group": "iridium-33-debris",
        "lat": -13.998232638822696,
        "lon": 79.41602871100017,
        "alt_km": 811.3143091278989,
        "timestamp": "2025-12-11T10:53:16.274827+00:00",
        "meta_object_name": "IRIDIUM 33 DEB",
        "meta_object_id": "1997-051AAN",
        "meta_epoch": "2025-12-10T12:50:43.071936",
        "meta_mean_motion": 14.20526294,
        "meta_eccentricity": 0.01776476,
        "meta_inclination": 86.3688,
        "meta_ra_of_asc_node": 258.8875,
        "meta_arg_of_pericenter": 280.3091,
        "meta_mean_anomaly": 261.6771,
        "meta_ephemeris_type": 0,
        "meta_classification_type": "U",
        "meta_norad_cat_id": 39781,
        "meta_element_set_no": 999,
        "meta_rev_at_epoch": 8075,
        "meta_bstar": 0.0089105992,
        "meta_mean_motion_dot": 0.00022501,
        "meta_mean_motion_ddot": 0,
        "tle_line1": "1 39781U 97051AAN 25344.53522074  .00022501  00000+0  89106-2 0  9991",
        "tle_line2": "2 39781  86.3688 258.8875 0177647 280.3091 261.6771 14.20526294 80752"
      },
      "geometry": {
        "type": "Point",
        "coordinates": [
          79.41602871100017,
          -13.998232638822696
        ]
      }
    },
    {
      "type": "Feature",
      "properties": {
        "norad_id": 39783,
        "name": "IRIDIUM 33 DEB",
        "group": "iridium-33-debris",
        "lat": -21.031970191520735,
        "lon": -105.54118470344962,
        "alt_km": 476.7221857115892,
        "timestamp": "2025-12-11T10:53:16.274838+00:00",
        "meta_object_name": "IRIDIUM 33 DEB",
        "meta_object_id": "1997-051AAQ",
        "meta_epoch": "2025-11-16T15:05:40.850592",
        "meta_mean_motion": 15.19327111,
        "meta_eccentricity": 0.00057535,
        "meta_inclination": 86.1306,
        "meta_ra_of_asc_node": 268.8004,
        "meta_arg_of_pericenter": 179.9151,
        "meta_mean_anomaly": 1.8316,
        "meta_ephemeris_type": 0,
        "meta_classification_type": "U",
        "meta_norad_cat_id": 39783,
        "meta_element_set_no": 999,
        "meta_rev_at_epoch": 60401,
        "meta_bstar": 0.010398125,
        "meta_mean_motion_dot": 0.00226179,
        "meta_mean_motion_ddot": 0,
        "tle_line1": "1 39783U 97051AAQ 25320.62894503  .00226179  00000+0  10398-1 0  9999",
        "tle_line2": "2 39783  86.1306 268.8004 0005753 179.9151   1.8316 15.19327111604018"
      },
      "geometry": {
        "type": "Point",
        "coordinates": [
          -105.54118470344962,
          -21.031970191520735
        ]
      }
    },
    {
      "type": "Feature",
      "properties": {
        "norad_id": 40996,
        "name": "IRIDIUM 33 DEB",
        "group": "iridium-33-debris",
        "lat": 15.392855627359774,
        "lon": 3.01683175940872,
        "alt_km": 574.4707895235406,
        "timestamp": "2025-12-11T10:53:16.274848+00:00",
        "meta_object_name": "IRIDIUM 33 DEB",
        "meta_object_id": "1997-051ABJ",
        "meta_epoch": "2025-12-09T19:28:10.178688",
        "meta_mean_motion": 14.95954954,
        "meta_eccentricity": 0.00121472,
        "meta_inclination": 86.3518,
        "meta_ra_of_asc_node": 2.7772,
        "meta_arg_of_pericenter": 71.5463,
        "meta_mean_anomaly": 104.382,
        "meta_ephemeris_type": 0,
        "meta_classification_type": "U",
        "meta_norad_cat_id": 40996,
        "meta_element_set_no": 999,
        "meta_rev_at_epoch": 62444,
        "meta_bstar": 0.0038127414,
        "meta_mean_motion_dot": 0.00042994,
        "meta_mean_motion_ddot": 0,
        "tle_line1": "1 40996U 97051ABJ 25343.81122892  .00042994  00000+0  38127-2 0  9990",
        "tle_line2": "2 40996  86.3518   2.7772 0012147  71.5463 104.3820 14.95954954624440"
      },
      "geometry": {
        "type": "Point",
        "coordinates": [
          3.01683175940872,
          15.392855627359774
        ]
      }
    },
    {
      "type": "Feature",
      "properties": {
        "norad_id": 40998,
        "name": "IRIDIUM 33 DEB",
        "group": "iridium-33-debris",
        "lat": -13.547487398461682,
        "lon": 53.33177916107976,
        "alt_km": 747.5809393506734,
        "timestamp": "2025-12-11T10:53:16.274859+00:00",
        "meta_object_name": "IRIDIUM 33 DEB",
        "meta_object_id": "1997-051ABL",
        "meta_epoch": "2025-12-09T22:57:49.203072",
        "meta_mean_motion": 14.45082428,
        "meta_eccentricity": 0.00095723,
        "meta_inclination": 86.3826,
        "meta_ra_of_asc_node": 54.8444,
        "meta_arg_of_pericenter": 91.708,
        "meta_mean_anomaly": 32.8835,
        "meta_ephemeris_type": 0,
        "meta_classification_type": "U",
        "meta_norad_cat_id": 40998,
        "meta_element_set_no": 999,
        "meta_rev_at_epoch": 6641,
        "meta_bstar": 0.00070534207,
        "meta_mean_motion_dot": 2.485e-05,
        "meta_mean_motion_ddot": 0,
        "tle_line1": "1 40998U 97051ABL 25343.95681948  .00002485  00000+0  70534-3 0  9999",
        "tle_line2": "2 40998  86.3826  54.8444 0009572  91.7080  32.8835 14.45082428 66416"
      },
      "geometry": {
        "type": "Point",
        "coordinates": [
          53.33177916107976,
          -13.547487398461682
        ]
      }
    }
  ]
}